[{"OBJECT_NAME":"STARLINK-33779","OBJECT_ID":"2025-094S","EPOCH":"2026-03-09T21:49:31.022976","MEAN_MOTION":14.98353234,"ECCENTRICITY":0.00026753,"INCLINATION":70.0014,"RA_OF_ASC_NODE":234.0017,"ARG_OF_PERICENTER":271.8394,"MEAN_ANOMALY":88.2459,"EPHEMERIS_TYPE":0,"CLASSIFICATION_TYPE":"U","NORAD_CAT_ID":63880,"ELEMENT_SET_NO":999,"REV_AT_EPOCH":4723,"BSTAR":0.00050903307,"MEAN_MOTION_DOT":5.989e-5,"MEAN_MOTION_DDOT":0},{"OBJECT_NAME":"FENGYUN 1C DEB","OBJECT_ID":"1999-025CSF","EPOCH":"2026-03-06T14:46:48.189792","MEAN_MOTION":14.83626867,"ECCENTRICITY":0.01812709,"INCLINATION":98.4497,"RA_OF_ASC_NODE":202.5264,"ARG_OF_PERICENTER":124.6228,"MEAN_ANOMALY":237.2229,"EPHEMERIS_TYPE":0,"CLASSIFICATION_TYPE":"U","NORAD_CAT_ID":32137,"ELEMENT_SET_NO":999,"REV_AT_EPOCH":67973,"BSTAR":0.0017939615,"MEAN_MOTION_DOT":0.00019795,"MEAN_MOTION_DDOT":0}]
